CCSDS_OMM_VERS = 2.0
CREATION_DATE  = 
ORIGINATOR     = 

OBJECT_NAME    = DELTA 2 R/B(1)
OBJECT_ID      = 1990-008B
CENTER_NAME    = EARTH
REF_FRAME      = TEME
TIME_SYSTEM    = UTC
MEAN_ELEMENT_THEORY = SGP/SGP4

EPOCH          = 2026-01-26T12:35:21.461280
MEAN_MOTION    = 15.50122982
ECCENTRICITY   = .0099929
INCLINATION    = 35.6057
RA_OF_ASC_NODE = 90.3468
ARG_OF_PERICENTER = 227.9474
MEAN_ANOMALY   = 131.2723

EPHEMERIS_TYPE = 0
CLASSIFICATION_TYPE = U
NORAD_CAT_ID   = 20453
ELEMENT_SET_NO = 999
REV_AT_EPOCH   = 91957
BSTAR          = .10066E-2
MEAN_MOTION_DOT = .72587E-3
MEAN_MOTION_DDOT = 0

CCSDS_OMM_VERS = 2.0
CREATION_DATE  = 
ORIGINATOR     = 

OBJECT_NAME    = COSMOS 2058
OBJECT_ID      = 1990-010A
CENTER_NAME    = EARTH
REF_FRAME      = TEME
TIME_SYSTEM    = UTC
MEAN_ELEMENT_THEORY = SGP/SGP4

EPOCH          = 2026-01-26T14:23:46.485312
MEAN_MOTION    = 15.10930080
ECCENTRICITY   = .0011649
INCLINATION    = 82.4651
RA_OF_ASC_NODE = 88.8918
ARG_OF_PERICENTER = 114.8131
MEAN_ANOMALY   = 245.4312

EPHEMERIS_TYPE = 0
CLASSIFICATION_TYPE = U
NORAD_CAT_ID   = 20465
ELEMENT_SET_NO = 999
REV_AT_EPOCH   = 93588
BSTAR          = .30626E-3
MEAN_MOTION_DOT = .5139E-4
MEAN_MOTION_DDOT = 0

CCSDS_OMM_VERS = 2.0
CREATION_DATE  = 
ORIGINATOR     = 

OBJECT_NAME    = SL-14 R/B
OBJECT_ID      = 1990-010B
CENTER_NAME    = EARTH
REF_FRAME      = TEME
TIME_SYSTEM    = UTC
MEAN_ELEMENT_THEORY = SGP/SGP4

EPOCH          = 2026-01-26T17:37:50.726496
MEAN_MOTION    = 14.83527087
ECCENTRICITY   = .0021411
INCLINATION    = 82.5043
RA_OF_ASC_NODE = 306.7945
ARG_OF_PERICENTER = 78.8918
MEAN_ANOMALY   = 281.4703

EPHEMERIS_TYPE = 0
CLASSIFICATION_TYPE = U
NORAD_CAT_ID   = 20466
ELEMENT_SET_NO = 999
REV_AT_EPOCH   = 92226
BSTAR          = .94775E-4
MEAN_MOTION_DOT = .807E-5
MEAN_MOTION_DDOT = 0

CCSDS_OMM_VERS = 2.0
CREATION_DATE  = 
ORIGINATOR     = 

OBJECT_NAME    = SL-14 R/B
OBJECT_ID      = 1990-018B
CENTER_NAME    = EARTH
REF_FRAME      = TEME
TIME_SYSTEM    = UTC
MEAN_ELEMENT_THEORY = SGP/SGP4

EPOCH          = 2026-01-26T13:50:44.253312
MEAN_MOTION    = 14.82100847
ECCENTRICITY   = .0015203
INCLINATION    = 82.5197
RA_OF_ASC_NODE = 262.4607
ARG_OF_PERICENTER = 227.3852
MEAN_ANOMALY   = 132.6081

EPHEMERIS_TYPE = 0
CLASSIFICATION_TYPE = U
NORAD_CAT_ID   = 20511
ELEMENT_SET_NO = 999
REV_AT_EPOCH   = 91634
BSTAR          = .77729E-4
MEAN_MOTION_DOT = .642E-5
MEAN_MOTION_DDOT = 0

CCSDS_OMM_VERS = 2.0
CREATION_DATE  = 
ORIGINATOR     = 

OBJECT_NAME    = HST
OBJECT_ID      = 1990-037B
CENTER_NAME    = EARTH
REF_FRAME      = TEME
TIME_SYSTEM    = UTC
MEAN_ELEMENT_THEORY = SGP/SGP4

EPOCH          = 2026-01-26T12:29:43.153440
MEAN_MOTION    = 15.28772489
ECCENTRICITY   = .0001768
INCLINATION    = 28.4682
RA_OF_ASC_NODE = 327.5205
ARG_OF_PERICENTER = 11.1496
MEAN_ANOMALY   = 348.9138

EPHEMERIS_TYPE = 0
CLASSIFICATION_TYPE = U
NORAD_CAT_ID   = 20580
ELEMENT_SET_NO = 999
REV_AT_EPOCH   = 76685
BSTAR          = .37646E-3
MEAN_MOTION_DOT = .11072E-3
MEAN_MOTION_DDOT = 0

CCSDS_OMM_VERS = 2.0
CREATION_DATE  = 
ORIGINATOR     = 

OBJECT_NAME    = SL-16 R/B
OBJECT_ID      = 1990-046B
CENTER_NAME    = EARTH
REF_FRAME      = TEME
TIME_SYSTEM    = UTC
MEAN_ELEMENT_THEORY = SGP/SGP4

EPOCH          = 2026-01-26T10:09:44.828928
MEAN_MOTION    = 14.15006957
ECCENTRICITY   = .00141211
INCLINATION    = 70.9993
RA_OF_ASC_NODE = 26.6782
ARG_OF_PERICENTER = 358.2201
MEAN_ANOMALY   = 1.8869

EPHEMERIS_TYPE = 0
CLASSIFICATION_TYPE = U
NORAD_CAT_ID   = 20625
ELEMENT_SET_NO = 999
REV_AT_EPOCH   = 84241
BSTAR          = -.86215128E-4
MEAN_MOTION_DOT = -.215E-5
MEAN_MOTION_DDOT = 0

CCSDS_OMM_VERS = 2.0
CREATION_DATE  = 
ORIGINATOR     = 

OBJECT_NAME    = COSMOS 2084
OBJECT_ID      = 1990-055A
CENTER_NAME    = EARTH
REF_FRAME      = TEME
TIME_SYSTEM    = UTC
MEAN_ELEMENT_THEORY = SGP/SGP4

EPOCH          = 2026-01-26T16:15:50.649120
MEAN_MOTION    = 15.05364750
ECCENTRICITY   = .0023939
INCLINATION    = 62.7902
RA_OF_ASC_NODE = 118.8371
ARG_OF_PERICENTER = 181.5629
MEAN_ANOMALY   = 178.5400

EPHEMERIS_TYPE = 0
CLASSIFICATION_TYPE = U
NORAD_CAT_ID   = 20663
ELEMENT_SET_NO = 999
REV_AT_EPOCH   = 92999
BSTAR          = .33268E-3
MEAN_MOTION_DOT = .4619E-4
MEAN_MOTION_DDOT = 0

CCSDS_OMM_VERS = 2.0
CREATION_DATE  = 
ORIGINATOR     = 

OBJECT_NAME    = SL-6 R/B(2)
OBJECT_ID      = 1990-055D
CENTER_NAME    = EARTH
REF_FRAME      = TEME
TIME_SYSTEM    = UTC
MEAN_ELEMENT_THEORY = SGP/SGP4

EPOCH          = 2026-01-26T17:40:44.349888
MEAN_MOTION    = 15.03345219
ECCENTRICITY   = .0018711
INCLINATION    = 62.7841
RA_OF_ASC_NODE = 36.4921
ARG_OF_PERICENTER = 334.0196
MEAN_ANOMALY   = 25.9962

EPHEMERIS_TYPE = 0
CLASSIFICATION_TYPE = U
NORAD_CAT_ID   = 20666
ELEMENT_SET_NO = 999
REV_AT_EPOCH   = 93188
BSTAR          = .28E-3
MEAN_MOTION_DOT = .3637E-4
MEAN_MOTION_DDOT = 0

CCSDS_OMM_VERS = 2.0
CREATION_DATE  = 
ORIGINATOR     = 

OBJECT_NAME    = SL-8 R/B
OBJECT_ID      = 1990-078B
CENTER_NAME    = EARTH
REF_FRAME      = TEME
TIME_SYSTEM    = UTC
MEAN_ELEMENT_THEORY = SGP/SGP4

EPOCH          = 2026-01-26T16:34:45.518304
MEAN_MOTION    = 14.87604254
ECCENTRICITY   = .0368047
INCLINATION    = 82.9047
RA_OF_ASC_NODE = 289.0351
ARG_OF_PERICENTER = 154.6959
MEAN_ANOMALY   = 207.2810

EPHEMERIS_TYPE = 0
CLASSIFICATION_TYPE = U
NORAD_CAT_ID   = 20775
ELEMENT_SET_NO = 999
REV_AT_EPOCH   = 80305
BSTAR          = .61378E-3
MEAN_MOTION_DOT = .20559E-3
MEAN_MOTION_DDOT = 0

CCSDS_OMM_VERS = 2.0
CREATION_DATE  = 
ORIGINATOR     = 

OBJECT_NAME    = SL-8 R/B
OBJECT_ID      = 1991-006B
CENTER_NAME    = EARTH
REF_FRAME      = TEME
TIME_SYSTEM    = UTC
MEAN_ELEMENT_THEORY = SGP/SGP4

EPOCH          = 2026-01-26T18:36:42.590016
MEAN_MOTION    = 13.77491994
ECCENTRICITY   = .0023097
INCLINATION    = 82.9412
RA_OF_ASC_NODE = 201.2112
ARG_OF_PERICENTER = 149.9865
MEAN_ANOMALY   = 221.1044

EPHEMERIS_TYPE = 0
CLASSIFICATION_TYPE = U
NORAD_CAT_ID   = 21088
ELEMENT_SET_NO = 999
REV_AT_EPOCH   = 75830
BSTAR          = .15117E-4
MEAN_MOTION_DOT = .31E-6
MEAN_MOTION_DDOT = 0

CCSDS_OMM_VERS = 2.0
CREATION_DATE  = 
ORIGINATOR     = 

OBJECT_NAME    = OKEAN-3
OBJECT_ID      = 1991-039A
CENTER_NAME    = EARTH
REF_FRAME      = TEME
TIME_SYSTEM    = UTC
MEAN_ELEMENT_THEORY = SGP/SGP4

EPOCH          = 2026-01-26T10:47:20.815008
MEAN_MOTION    = 15.04453071
ECCENTRICITY   = .00158847
INCLINATION    = 82.5169
RA_OF_ASC_NODE = 17.7532
ARG_OF_PERICENTER = 111.3125
MEAN_ANOMALY   = 248.9799

EPHEMERIS_TYPE = 0
CLASSIFICATION_TYPE = U
NORAD_CAT_ID   = 21397
ELEMENT_SET_NO = 999
REV_AT_EPOCH   = 85868
BSTAR          = .40177349E-3
MEAN_MOTION_DOT = .5659E-4
MEAN_MOTION_DDOT = 0

CCSDS_OMM_VERS = 2.0
CREATION_DATE  = 
ORIGINATOR     = 

OBJECT_NAME    = COSMOS 2151
OBJECT_ID      = 1991-042A
CENTER_NAME    = EARTH
REF_FRAME      = TEME
TIME_SYSTEM    = UTC
MEAN_ELEMENT_THEORY = SGP/SGP4

EPOCH          = 2026-01-26T18:59:00.996000
MEAN_MOTION    = 14.99923438
ECCENTRICITY   = .0012158
INCLINATION    = 82.4975
RA_OF_ASC_NODE = 124.0856
ARG_OF_PERICENTER = 194.4171
MEAN_ANOMALY   = 165.6708

EPHEMERIS_TYPE = 0
CLASSIFICATION_TYPE = U
NORAD_CAT_ID   = 21422
ELEMENT_SET_NO = 999
REV_AT_EPOCH   = 85691
BSTAR          = .25775E-3
MEAN_MOTION_DOT = .3228E-4
MEAN_MOTION_DDOT = 0

