DELTA 2 R/B(1)          
1 20453U 90008B   26026.52455395  .00072587  00000+0  10066-2 0  9998
2 20453  35.6057  90.3468 0099929 227.9474 131.2723 15.50122982919570
COSMOS 2058             
1 20465U 90010A   26026.59984358  .00005139  00000+0  30626-3 0  9991
2 20465  82.4651  88.8918 0011649 114.8131 245.4312 15.10930080935888
SL-14 R/B               
1 20466U 90010B   26026.73461489  .00000807  00000+0  94775-4 0  9996
2 20466  82.5043 306.7945 0021411  78.8918 281.4703 14.83527087922267
SL-14 R/B               
1 20511U 90018B   26026.57690108  .00000642  00000+0  77729-4 0  9996
2 20511  82.5197 262.4607 0015203 227.3852 132.6081 14.82100847916349
HST                     
1 20580U 90037B   26026.52063835  .00011072  00000+0  37646-3 0  9991
2 20580  28.4682 327.5205 0001768  11.1496 348.9138 15.28772489766856
SL-16 R/B               
1 20625U 90046B   26026.42343552 -.00000215  00000+0 -86215-4 0  9993
2 20625  70.9993  26.6782 0014121 358.2201   1.8869 14.15006957842414
COSMOS 2084             
1 20663U 90055A   26026.67766955  .00004619  00000+0  33268-3 0  9997
2 20663  62.7902 118.8371 0023939 181.5629 178.5400 15.05364750929991
SL-6 R/B(2)             
1 20666U 90055D   26026.73662442  .00003637  00000+0  28000-3 0  9990
2 20666  62.7841  36.4921 0018711 334.0196  25.9962 15.03345219931884
SL-8 R/B                
1 20775U 90078B   26026.69080461  .00020559  00000+0  61378-3 0  9993
2 20775  82.9047 289.0351 0368047 154.6959 207.2810 14.87604254803055
SL-8 R/B                
1 21088U 91006B   26026.77549294  .00000031  00000+0  15117-4 0  9990
2 21088  82.9412 201.2112 0023097 149.9865 221.1044 13.77491994758300
OKEAN-3                 
1 21397U 91039A   26026.44954647  .00005659  00000+0  40177-3 0  9999
2 21397  82.5169  17.7532 0015884 111.3125 248.9799 15.04453071858683
COSMOS 2151             
1 21422U 91042A   26026.79098375  .00003228  00000+0  25775-3 0  9994
2 21422  82.4975 124.0856 0012158 194.4171 165.6708 14.99923438856912
